{"type": "FeatureCollection", "features": [ {"type": "Feature", "properties": {"norad_id": 34637, "name": "COSMOS 2251 DEB", "group": "cosmos-2251-debris", "lat": 8.915536603561922, "lon": 81.63802178925079, "alt_km": 719.2541155288709, "timestamp": "2025-12-24T07:45:06.593618+00:00", "meta": {"OBJECT_NAME": "COSMOS 2251 DEB", "OBJECT_ID": "1993-036XJ", "EPOCH": "2025-12-23T12:02:54.838176", "MEAN_MOTION": 14.60183859, "ECCENTRICITY": 0.00489931, "INCLINATION": 74.05, "RA_OF_ASC_NODE": 80.6317, "ARG_OF_PERICENTER": 148.2362, "MEAN_ANOMALY": 227.7441, "EPHEMERIS_TYPE": 0, "CLASSIFICATION_TYPE": "U", "NORAD_CAT_ID": 34637, "ELEMENT_SET_NO": 999, "REV_AT_EPOCH": 88684, "BSTAR": 0.00085838168, "MEAN_MOTION_DOT": 4.178e-05, "MEAN_MOTION_DDOT": 0}, "tle": {"line1": "1 34637U 93036XJ  25357.50202359  .00004178  00000+0  85838-3 0  9996", "line2": "2 34637  74.0500  80.6317 0048993 148.2362 227.7441 14.60183859886841"}}, "geometry": {"type": "Point", "coordinates": [81.63802178925079, 8.915536603561922]}}, {"type": "Feature", "properties": {"norad_id": 34641, "name": "COSMOS 2251 DEB", "group": "cosmos-2251-debris", "lat": 22.500018716908272, "lon": 66.46046837194707, "alt_km": 709.719159164667, "timestamp": "2025-12-24T07:45:06.593628+00:00", "meta": {"OBJECT_NAME": "COSMOS 2251 DEB", "OBJECT_ID": "1993-036XN", "EPOCH": "2025-12-23T22:32:56.853024", "MEAN_MOTION": 14.52074303, "ECCENTRICITY": 0.00190708, "INCLINATION": 73.8374, "RA_OF_ASC_NODE": 60.292, "ARG_OF_PERICENTER": 332.9719, "MEAN_ANOMALY": 206.7936, "EPHEMERIS_TYPE": 0, "CLASSIFICATION_TYPE": "U", "NORAD_CAT_ID": 34641, "ELEMENT_SET_NO": 999, "REV_AT_EPOCH": 88418, "BSTAR": 0.00077881091, "MEAN_MOTION_DOT": 3.13e-05, "MEAN_MOTION_DDOT": 0}, "tle": {"line1": "1 34641U 93036XN  25357.93954691  .00003130  00000+0  77881-3 0  9997", "line2": "2 34641  73.8374  60.2920 0019070 332.9719 206.7936 14.52074303884183"}}, "geometry": {"type": "Point", "coordinates": [66.46046837194707, 22.500018716908272]}}, {"type": "Feature", "properties": {"norad_id": 34642, "name": "COSMOS 2251 DEB", "group": "cosmos-2251-debris", "lat": 51.559611629210856, "lon": -19.07712431853885, "alt_km": 868.7146169573243, "timestamp": "2025-12-24T07:45:06.593638+00:00", "meta": {"OBJECT_NAME": "COSMOS 2251 DEB", "OBJECT_ID": "1993-036XP", "EPOCH": "2025-12-22T21:18:46.794240", "MEAN_MOTION": 13.99000221, "ECCENTRICITY": 0.02065395, "INCLINATION": 74.0044, "RA_OF_ASC_NODE": 322.2225, "ARG_OF_PERICENTER": 139.6532, "MEAN_ANOMALY": 253.1213, "EPHEMERIS_TYPE": 0, "CLASSIFICATION_TYPE": "U", "NORAD_CAT_ID": 34642, "ELEMENT_SET_NO": 999, "REV_AT_EPOCH": 85435, "BSTAR": 0.00078596345, "MEAN_MOTION_DOT": 1.341e-05, "MEAN_MOTION_DDOT": 0}, "tle": {"line1": "1 34642U 93036XP  25356.88804160  .00001341  00000+0  78596-3 0  9992", "line2": "2 34642  74.0044 322.2225 0206539 139.6532 253.1213 13.99000221854351"}}, "geometry": {"type": "Point", "coordinates": [-19.07712431853885, 51.559611629210856]}}, {"type": "Feature", "properties": {"norad_id": 34671, "name": "COSMOS 2251 DEB", "group": "cosmos-2251-debris", "lat": 30.07230571765514, "lon": 121.47942862265687, "alt_km": 675.4835186984037, "timestamp": "2025-12-24T07:45:06.593648+00:00", "meta": {"OBJECT_NAME": "COSMOS 2251 DEB", "OBJECT_ID": "1993-036XR", "EPOCH": "2025-12-23T01:02:34.173312", "MEAN_MOTION": 14.67102739, "ECCENTRICITY": 0.00106686, "INCLINATION": 74.0274, "RA_OF_ASC_NODE": 114.4027, "ARG_OF_PERICENTER": 195.4789, "MEAN_ANOMALY": 280.8159, "EPHEMERIS_TYPE": 0, "CLASSIFICATION_TYPE": "U", "NORAD_CAT_ID": 34671, "ELEMENT_SET_NO": 999, "REV_AT_EPOCH": 88448, "BSTAR": 0.0017957882, "MEAN_MOTION_DOT": 0.0001008, "MEAN_MOTION_DDOT": 0}, "tle": {"line1": "1 34671U 93036XR  25357.04345108  .00010080  00000+0  17958-2 0  9999", "line2": "2 34671  74.0274 114.4027 0010668 195.4789 280.8159 14.67102739884485"}}, "geometry": {"type": "Point", "coordinates": [121.47942862265687, 30.07230571765514]}}, {"type": "Feature", "properties": {"norad_id": 34672, "name": "COSMOS 2251 DEB", "group": "cosmos-2251-debris", "lat": 14.876782565133139, "lon": -71.33018834423959, "alt_km": 754.684136460508, "timestamp": "2025-12-24T07:45:06.593658+00:00", "meta": {"OBJECT_NAME": "COSMOS 2251 DEB", "OBJECT_ID": "1993-036XS", "EPOCH": "2025-12-23T01:39:52.431840", "MEAN_MOTION": 14.36424251, "ECCENTRICITY": 0.00243004, "INCLINATION": 74.0343, "RA_OF_ASC_NODE": 286.6106, "ARG_OF_PERICENTER": 356.389, "MEAN_ANOMALY": 18.9966, "EPHEMERIS_TYPE": 0, "CLASSIFICATION_TYPE": "U", "NORAD_CAT_ID": 34672, "ELEMENT_SET_NO": 999, "REV_AT_EPOCH": 65326, "BSTAR": 0.00025150328, "MEAN_MOTION_DOT": 7.13e-06, "MEAN_MOTION_DDOT": 0}, "tle": {"line1": "1 34672U 93036XS  25357.06935685  .00000713  00000+0  25150-3 0  9993", "line2": "2 34672  74.0343 286.6106 0024300 356.3890  18.9966 14.36424251653260"}}, "geometry": {"type": "Point", "coordinates": [-71.33018834423959, 14.876782565133139]}}, {"type": "Feature", "properties": {"norad_id": 34678, "name": "COSMOS 2251 DEB", "group": "cosmos-2251-debris", "lat": -61.86317054843888, "lon": -47.72457059649577, "alt_km": 800.3498894596587, "timestamp": "2025-12-24T07:45:06.593668+00:00", "meta": {"OBJECT_NAME": "COSMOS 2251 DEB", "OBJECT_ID": "1993-036XY", "EPOCH": "2025-12-23T18:55:51.698784", "MEAN_MOTION": 14.30066893, "ECCENTRICITY": 0.00247659, "INCLINATION": 74.0377, "RA_OF_ASC_NODE": 345.6043, "ARG_OF_PERICENTER": 31.3096, "MEAN_ANOMALY": 33.4063, "EPHEMERIS_TYPE": 0, "CLASSIFICATION_TYPE": "U", "NORAD_CAT_ID": 34678, "ELEMENT_SET_NO": 999, "REV_AT_EPOCH": 87537, "BSTAR": 2.975852e-05, "MEAN_MOTION_DOT": 5.1e-07, "MEAN_MOTION_DDOT": 0}, "tle": {"line1": "1 34678U 93036XY  25357.78879281  .00000051  00000+0  29759-4 0  9992", "line2": "2 34678  74.0377 345.6043 0024765  31.3096  33.4063 14.30066893875378"}}, "geometry": {"type": "Point", "coordinates": [-47.72457059649577, -61.86317054843888]}}, {"type": "Feature", "properties": {"norad_id": 34680, "name": "COSMOS 2251 DEB", "group": "cosmos-2251-debris", "lat": 48.527984029164436, "lon": 126.62813372523502, "alt_km": 690.2213167522959, "timestamp": "2025-12-24T07:45:06.593689+00:00", "meta": {"OBJECT_NAME": "COSMOS 2251 DEB", "OBJECT_ID": "1993-036YA", "EPOCH": "2025-12-23T15:21:33.153120", "MEAN_MOTION": 14.60731514, "ECCENTRICITY": 0.00063275, "INCLINATION": 74.0441, "RA_OF_ASC_NODE": 109.0451, "ARG_OF_PERICENTER": 210.5791, "MEAN_ANOMALY": 210.4022, "EPHEMERIS_TYPE": 0, "CLASSIFICATION_TYPE": "U", "NORAD_CAT_ID": 34680, "ELEMENT_SET_NO": 999, "REV_AT_EPOCH": 88487, "BSTAR": 0.0011410093, "MEAN_MOTION_DOT": 5.54e-05, "MEAN_MOTION_DDOT": 0}, "tle": {"line1": "1 34680U 93036YA  25357.63996705  .00005540  00000+0  11410-2 0  9991", "line2": "2 34680  74.0441 109.0451 0006327 210.5791 210.4022 14.60731514884874"}}, "geometry": {"type": "Point", "coordinates": [126.62813372523502, 48.527984029164436]}}, {"type": "Feature", "properties": {"norad_id": 34681, "name": "COSMOS 2251 DEB", "group": "cosmos-2251-debris", "lat": 34.410903471492794, "lon": 76.21030138987236, "alt_km": 633.8133110156195, "timestamp": "2025-12-24T07:45:06.593700+00:00", "meta": {"OBJECT_NAME": "COSMOS 2251 DEB", "OBJECT_ID": "1993-036YB", "EPOCH": "2025-12-23T05:54:51.560640", "MEAN_MOTION": 14.83443446, "ECCENTRICITY": 0.00257018, "INCLINATION": 74.0625, "RA_OF_ASC_NODE": 269.6261, "ARG_OF_PERICENTER": 324.9574, "MEAN_ANOMALY": 192.0619, "EPHEMERIS_TYPE": 0, "CLASSIFICATION_TYPE": "U", "NORAD_CAT_ID": 34681, "ELEMENT_SET_NO": 999, "REV_AT_EPOCH": 89426, "BSTAR": 0.0013897227, "MEAN_MOTION_DOT": 0.00011467, "MEAN_MOTION_DDOT": 0}, "tle": {"line1": "1 34681U 93036YB  25357.24643010  .00011467  00000+0  13897-2 0  9993", "line2": "2 34681  74.0625 269.6261 0025701 324.9574 192.0619 14.83443446894267"}}, "geometry": {"type": "Point", "coordinates": [76.21030138987236, 34.410903471492794]}}, {"type": "Feature", "properties": {"norad_id": 34682, "name": "COSMOS 2251 DEB", "group": "cosmos-2251-debris", "lat": -37.20060940883982, "lon": 48.380195060295115, "alt_km": 710.3621550181133, "timestamp": "2025-12-24T07:45:06.593711+00:00", "meta": {"OBJECT_NAME": "COSMOS 2251 DEB", "OBJECT_ID": "1993-036YC", "EPOCH": "2025-12-23T22:52:02.991360", "MEAN_MOTION": 14.58967683, "ECCENTRICITY": 0.00177698, "INCLINATION": 74.0391, "RA_OF_ASC_NODE": 61.6319, "ARG_OF_PERICENTER": 193.3088, "MEAN_ANOMALY": 344.1644, "EPHEMERIS_TYPE": 0, "CLASSIFICATION_TYPE": "U", "NORAD_CAT_ID": 34682, "ELEMENT_SET_NO": 999, "REV_AT_EPOCH": 88849, "BSTAR": 0.00070981802, "MEAN_MOTION_DOT": 3.31e-05, "MEAN_MOTION_DDOT": 0}, "tle": {"line1": "1 34682U 93036YC  25357.95281240  .00003310  00000+0  70982-3 0  9992", "line2": "2 34682  74.0391  61.6319 0017769 193.3088 344.1644 14.58967683888497"}}, "geometry": {"type": "Point", "coordinates": [48.380195060295115, -37.20060940883982]}}, {"type": "Feature", "properties": {"norad_id": 34683, "name": "COSMOS 2251 DEB", "group": "cosmos-2251-debris", "lat": -11.73722046123037, "lon": 66.58518177388768, "alt_km": 694.254896026825, "timestamp": "2025-12-24T07:45:06.593721+00:00", "meta": {"OBJECT_NAME": "COSMOS 2251 DEB", "OBJECT_ID": "1993-036YD", "EPOCH": "2025-12-21T23:13:28.490304", "MEAN_MOTION": 14.64596399, "ECCENTRICITY": 0.00176254, "INCLINATION": 74.0294, "RA_OF_ASC_NODE": 74.5237, "ARG_OF_PERICENTER": 189.2984, "MEAN_ANOMALY": 345.1079, "EPHEMERIS_TYPE": 0, "CLASSIFICATION_TYPE": "U", "NORAD_CAT_ID": 34683, "ELEMENT_SET_NO": 999, "REV_AT_EPOCH": 88483, "BSTAR": 0.0011365708, "MEAN_MOTION_DOT": 6.024e-05, "MEAN_MOTION_DDOT": 0}, "tle": {"line1": "1 34683U 93036YD  25355.96769086  .00006024  00000+0  11366-2 0  9996", "line2": "2 34683  74.0294  74.5237 0017625 189.2984 345.1079 14.64596399884838"}}, "geometry": {"type": "Point", "coordinates": [66.58518177388768, -11.73722046123037]}}]}